STARLINK-31486          
1 59181U 24045D   26068.06651491  .00000631  00000+0  32457-4 0  9997
2 59181  43.0039  92.8157 0001946 286.8405  73.2233 15.27575600113104
TEVEL2-1                
1 63217U 25052H   26068.64782323  .00020683  00000+0  70600-3 0  9994
2 63217  97.3991 324.7682 0004767 104.8919 255.2849 15.30341923 54855
